STARLINK-11384 [DTC]
1 62088U 24220A   26092.75397278  .00257759  00000+0  19395-2 0  9994
2 62088  43.0014 258.3984 0003024 259.3677 100.6850 15.70974075 78836
STARLINK-11379 [DTC]
1 62089U 24220B   26092.81224885  .00343697  00000+0  25646-2 0  9998
2 62089  42.9998 257.9719 0001163 299.1665  60.9086 15.70916005 78746
STARLINK-11387 [DTC]
1 62090U 24220C   26092.87051600  .00270230  00000+0  20340-2 0  9997
2 62090  42.9999 257.5476 0001374 248.6944 111.3777 15.70930468 78857
STARLINK-11389 [DTC]
1 62091U 24220D   26092.86521074  .00281275  00000+0  21150-2 0  9995
2 62091  43.0008 257.5050 0001497 292.9694  67.1016 15.70920846 78751
STARLINK-11388 [DTC]
1 62092U 24220E   26092.85990214  .00401272  00000+0  29765-2 0  9992
2 62092  43.0004 257.4625 0001265 260.3299  99.7425 15.70884914 78758
STARLINK-11345 [DTC]
1 62093U 24220F   26092.85457818  .00339371  00000+0  25185-2 0  9993
2 62093  43.0033 257.4193 0005810 263.7604  96.2602 15.71048933 78751
STARLINK-11381 [DTC]
1 62094U 24220G   26092.53136878  .00302259  00000+0  22779-2 0  9990
2 62094  43.0002 259.2920 0001735 244.1290 115.9399 15.70803738 78700
STARLINK-11369 [DTC]
1 62095U 24220H   26092.58963816 -.00063414  00000+0 -49208-3 0  9992
2 62095  42.9990 258.8655 0001839 273.9035  86.1622 15.70953537 78810
STARLINK-11303 [DTC]
1 62096U 24220J   26092.45716691  .00339615  00000+0  25194-2 0  9990
2 62096  42.9999 259.5908 0003877 273.8020  86.2404 15.71064742 78794
STARLINK-11367 [DTC]
1 62097U 24220K   26092.76977270  .00266569  00000+0  20100-2 0  9996
2 62097  43.0001 257.6314 0001800 282.5126  77.5540 15.70899466 78847
STARLINK-11386 [DTC]
1 62098U 24220L   26092.82804534  .00263949  00000+0  19886-2 0  9994
2 62098  43.0004 257.2032 0001658 260.3146  99.7534 15.70927404 78754
STARLINK-11380 [DTC]
1 62099U 24220M   26092.33335648 -.00039770  00000+0 -30790-3 0  9999
2 62099  43.0003 260.1117 0001828 277.2758 191.9604 15.70840274  5972
STARLINK-11496 [DTC]
1 62267U 24237A   26091.80324293  .00128114  00000+0  98259-3 0  9992
2 62267  42.9985 277.6295 0001751 244.7382 115.3305 15.70936632 76681
STARLINK-11501 [DTC]
1 62268U 24237B   26092.85228698  .00364414  00000+0  27093-2 0  9993
2 62268  43.0032 270.8577 0002861 288.0491  72.0065 15.70941003 76804
STARLINK-11491 [DTC]
1 62269U 24237C   26092.84697734  .00247131  00000+0  18661-2 0  9991
2 62269  43.0009 270.8143 0002163 282.9077  77.1549 15.70924297 76850
STARLINK-11479 [DTC]
1 62270U 24237D   26092.86290259  .00160713  00000+0  12284-2 0  9991
2 62270  43.0001 270.9430 0001471 266.4768  93.5932 15.70908839 76851
STARLINK-11489 [DTC]
1 62271U 24237E   26092.83648669  .00372550  00000+0  27642-2 0  9999
2 62271  43.0017 271.6239 0002772 277.6298  82.4255 15.70964448 76843
STARLINK-11494 [DTC]
1 62272U 24237F   26092.81525590  .00462718  00000+0  33970-2 0  9992
2 62272  43.0012 271.4535 0002385 294.4023  65.6596 15.70950301 76797
STARLINK-11333 [DTC]
1 62273U 24237G   26091.87213074  .00247446  00000+0  18691-2 0  9991
2 62273  43.0004 277.2870 0002307 278.5791  81.4815 15.70915513 76699
STARLINK-11504 [DTC]
1 62274U 24237H   26092.83335647 -.00109934  00000+0 -86412-3 0  9998
2 62274  43.0001 271.2716 0001659 271.7727 220.8374 15.70852374  5925
STARLINK-11495 [DTC]
1 62275U 24237J   26092.77821657  .00342295  00000+0  25556-2 0  9991
2 62275  43.0006 272.0489 0001479 271.1612  88.9086 15.70905984 76785
STARLINK-11498 [DTC]
1 62276U 24237K   26092.85759510  .00181482  00000+0  13837-2 0  9997
2 62276  42.9991 270.8976 0001792 286.8856  73.1815 15.70898682 76855
STARLINK-11484 [DTC]
1 62277U 24237L   26092.86821768  .00395358  00000+0  29281-2 0  9993
2 62277  42.9995 270.9818 0001613 257.1352 102.9335 15.70939904 76851
STARLINK-11487 [DTC]
1 62278U 24237M   26092.83117287  .00306731  00000+0  22893-2 0  9994
2 62278  43.0003 271.5763 0004083 263.1193  96.9210 15.71017344 76843
STARLINK-11499 [DTC]
1 62279U 24237N   26092.52479269  .00293413  00000+0  22005-2 0  9999
2 62279  42.9993 273.5869 0002322 261.4679  98.5926 15.70945853 76726
STARLINK-11444 [DTC]
1 62409U 24249A   26092.82915102  .00354532  00000+0  26333-2 0  9999
2 62409  43.0006  22.4649 0001635 248.7314 111.3379 15.70993408 73277
STARLINK-11493 [DTC]
1 62410U 24249B   26092.51656777  .00336813  00000+0  24823-2 0  9991
2 62410  43.0004  24.4235 0002034 332.5314  27.5446 15.71231996 73222
STARLINK-11453 [DTC]
1 62411U 24249C   26092.86618630  .00435178  00000+0  31728-2 0  9992
2 62411  42.9992  21.8644 0003429 209.4006 150.6669 15.71196254 73289
STARLINK-11441 [DTC]
1 62413U 24249E   26092.85025510  .00340337  00000+0  25309-2 0  9992
2 62413  42.9996  21.7392 0001486 252.9401 107.1304 15.71007351 73289
STARLINK-11445 [DTC]
1 62414U 24249F   26092.28863426  .00296664  00000+0  22199-2 0  9993
2 62414  43.0020  25.2725 0004684 277.7558  82.2777 15.70984260 73199
STARLINK-11355 [DTC]
1 62415U 24249G   26092.85556811  .00364843  00000+0  26984-2 0  9995
2 62415  43.0027  21.7725 0002953 255.5383 104.5157 15.71063870 73281
STARLINK-11446 [DTC]
1 62416U 24249H   26092.83963839  .00356049  00000+0  26415-2 0  9994
2 62416  43.0002  21.6504 0001166 255.3368 104.7371 15.71015626 73281
STARLINK-11428 [DTC]
1 62417U 24249J   26092.81853248  .00290126  00000+0  21743-2 0  9997
2 62417  43.0015  22.3844 0001786 252.0653 108.0020 15.70973493 73271
STARLINK-11447 [DTC]
1 62418U 24249K   26092.84494843  .00321407  00000+0  23948-2 0  9999
2 62418  42.9966  21.6930 0000270 208.9064 151.1789 15.71015226 73280
STARLINK-11434 [DTC]
1 62420U 24249M   26092.82384050  .00508064  00000+0  36933-2 0  9992
2 62420  42.9996  22.4168 0001134 253.6541 106.4202 15.71049169 73270
STARLINK-11461 [DTC]
1 62421U 24249N   26092.81322226  .00004993  00000+0  42334-4 0  9995
2 62421  43.0003  22.3313 0000534 205.3092 154.7749 15.70866383 73277
STARLINK-11518 [DTC]
1 62462U 24254A   26092.38570673  .00228169  00000+0  17274-2 0  9995
2 62462  42.9992  80.5398 0003080 224.8642 135.1976 15.70919424 73137
STARLINK-11455 [DTC]
1 62463U 24254B   26092.32743697  .00298723  00000+0  22351-2 0  9993
2 62463  43.0053  80.9671 0003383 272.2434  87.8046 15.70984218 73110
STARLINK-11178 [DTC]
1 62465U 24254D   26092.24793181  .00377530  00000+0  28037-2 0  9990
2 62465  43.0006  81.2210 0000916 259.6133 100.4631 15.70927009 72944
STARLINK-11506 [DTC]
1 62466U 24254E   26092.65055105  .00269240  00000+0  20295-2 0  9999
2 62466  42.9994  78.1939 0002593  55.4022 304.7090 15.70897683 73015
STARLINK-11486 [DTC]
1 62467U 24254F   26092.31682009  .00375820  00000+0  27893-2 0  9995
2 62467  43.0041  80.8801 0002440 274.3657  85.6932 15.70948437 73111
STARLINK-11511 [DTC]
1 62468U 24254G   26092.67709019  .00186459  00000+0  14207-2 0  9999
2 62468  43.0002  78.4078 0000901  71.7014 288.3952 15.70899100 73176
STARLINK-11505 [DTC]
1 62469U 24254H   26092.34854763  .00319049  00000+0  23858-2 0  9996
2 62469  43.0002  80.2384 0001691 271.9153  88.1521 15.70938318 73110
STARLINK-11497 [DTC]
1 62470U 24254J   26092.68238141  .00271738  00000+0  20395-2 0  9996
2 62470  43.0010  78.4508 0004158 271.1532  88.8860 15.70989875 73175
STARLINK-11477 [DTC]
1 62471U 24254K   26092.66116730  .00241061  00000+0  18229-2 0  9993
2 62471  43.0001  78.2798 0002239  48.4817 311.6243 15.70907847 73164
STARLINK-11500 [DTC]
1 62472U 24254L   26092.65585350  .00293518  00000+0  22045-2 0  9996
2 62472  43.0012  78.2361 0001007  17.8800 342.2103 15.70910795 72640
STARLINK-11464 [DTC]
1 62473U 24254M   26092.24262068  .00247126  00000+0  18691-2 0  9996
2 62473  42.9999  81.1744 0001095 255.7992 104.2754 15.70886407 73150
STARLINK-11502 [DTC]
1 62474U 24254N   26092.35385674  .00155378  00000+0  11893-2 0  9992
2 62474  43.0001  80.2790 0001285 255.3090 104.7635 15.70892021 73123
STARLINK-11452 [DTC]
1 62511U 25004A   26092.81830005  .00256515  00000+0  19329-2 0  9999
2 62511  42.9986 285.2641 0001512 265.1797  94.8898 15.70946523 71926
STARLINK-11443 [DTC]
1 62512U 25004B   26092.65941047  .00222959  00000+0  16832-2 0  9992
2 62512  42.9947 286.6708 0000401 159.0137 201.0748 15.71004403 70971
STARLINK-11440 [DTC]
1 62513U 25004C   26092.83423049  .00166264  00000+0  12686-2 0  9999
2 62513  42.9989 285.3922 0001820 264.2964  95.7696 15.70930472 71003
STARLINK-11514 [DTC]
1 62514U 25004D   26092.81390394  .00251614  00000+0  18966-2 0  9995
2 62514  42.9988 285.2282 0001746 240.5981 119.4712 15.70952992 71008
STARLINK-11508 [DTC]
1 62515U 25004E   26092.23544010  .00254610  00000+0  19206-2 0  9995
2 62515  42.9974 288.6253 0002285 294.2492  65.8136 15.70925743 70918
STARLINK-11510 [DTC]
1 62516U 25004F   26092.83953900  .00306072  00000+0  22939-2 0  9991
2 62516  42.9985 285.4319 0001062 166.5139 193.5757 15.70924150 71000
STARLINK-11512 [DTC]
1 62517U 25004G   26092.53742931  .00365369  00000+0  26922-2 0  9999
2 62517  42.9974 286.5847 0003644 295.1029  64.9460 15.71150016 70961
STARLINK-11450 [DTC]
1 62518U 25004H   26092.76003368  .00230699  00000+0  17502-2 0  9990
2 62518  43.0002 285.6879 0003442 301.6528  58.4004 15.70860710 70997
STARLINK-11507 [DTC]
1 62519U 25004J   26092.82892340  .00331827  00000+0  24810-2 0  9999
2 62519  42.9996 285.3458 0002060 272.7346  87.3286 15.70904007 71003
STARLINK-11482 [DTC]
1 62520U 25004K   26092.86064998  .00274932  00000+0  20660-2 0  9997
2 62520  43.0000 284.7062 0001884 273.5231  86.5421 15.70955713 71015
STARLINK-11528 [DTC]
1 62521U 25004L   26092.59052106  .00248281  00000+0  18646-2 0  9995
2 62521  42.9991 287.0022 0005025 284.4005  75.6305 15.71041852 70960
STARLINK-11516 [DTC]
1 62522U 25004M   26092.81299362  .00325508  00000+0  24329-2 0  9991
2 62522  43.0008 285.2161 0001256 176.4301 183.6576 15.70930429 71009
STARLINK-11527 [DTC]
1 62523U 25004N   26092.80237664  .00228505  00000+0  17339-2 0  9990
2 62523  42.9983 285.1294 0001261 235.1604 124.9145 15.70866346 71007
STARLINK-11538 [DTC]
1 62554U 25006A   26092.76994918  .00332489  00000+0  24848-2 0  9993
2 62554  42.9997 354.3872 0002122 301.5936  58.4724 15.70913138 70397
